#aV2006 11 21  0  0   .00000000      96 DD+AD WGS84 FIT  NGA
## 1402 172800.00000000   900.00000000 54060  .0000000000000
+   29     1  2  3  4  5  6  7  8  9 10 11 13 14 16 17 18 19
+         20 21 22 23 24 25 26 27 28 29 30 31  0  0  0  0  0
+          0  0  0  0  0  0  0  0  0  0  0  0  0  0  0  0  0
+          0  0  0  0  0  0  0  0  0  0  0  0  0  0  0  0  0
+          0  0  0  0  0  0  0  0  0  0  0  0  0  0  0  0  0
++         0  0  0  0  0  0  0  0  0  0  0  0  0  0  0  0  0
++         0  0  0  0  0  0  0  0  0  0  0  0  0  0  0  0  0
++         0  0  0  0  0  0  0  0  0  0  0  0  0  0  0  0  0
++         0  0  0  0  0  0  0  0  0  0  0  0  0  0  0  0  0
++         0  0  0  0  0  0  0  0  0  0  0  0  0  0  0  0  0
%c cc cc ccc ccc cccc cccc cccc cccc ccccc ccccc ccccc ccccc
%c cc cc ccc ccc cccc cccc cccc cccc ccccc ccccc ccccc ccccc
%f  0.0000000  0.000000000  0.00000000000  0.000000000000000
%f  0.0000000  0.000000000  0.00000000000  0.000000000000000
%i    0    0    0    0      0      0      0      0         0
%i    0    0    0    0      0      0      0      0         0
/*      NGA, ST. LOUIS,MO.                                  
/*   EPHEMERIS COMPUTED FROM  3 DAYS OF DATA                
/* CCCCCCCCCCCCCCCCCCCCCCCCCCCCCCCCCCCCCCCCCCCCCCCCCCCCCCCCC
/* CCCCCCCCCCCCCCCCCCCCCCCCCCCCCCCCCCCCCCCCCCCCCCCCCCCCCCCCC
*  2006 11 21  0 30   .00000000                                                 
P  1 -14605.371810  21642.888941   4879.308424     90.468226                    
V  1  -5319.860964   3225.777611 -31626.406179       .028504                    
P  2   8677.800896 -13750.332976  20723.949986     56.585735                    
V  2  26528.195971   4837.219379  -8045.818301       .036184                    
P  3  -9194.799471  23774.635052  -7029.172616    412.721763                    
V  3  -8104.160471   5227.090379  29407.990996       .290768                    
P  4  21594.494373  -6721.800954  14161.798554    338.573572                    
V  4  17352.561170   5109.704305 -23591.701058       .040768                    
P  5 -13369.445443 -22884.286757   2517.811706    378.028466                    
V  5   1501.710602  -4608.817148 -30932.773466       .268060                    
P  6 -15978.783982  -4469.793901  20935.315702    543.109929                    
V  6  15019.767094 -21546.738468   6869.750869      -.143337                    
P  7 -20127.398136  11331.942140  13501.755080    491.330782                    
V  7   7349.720804 -15150.629106  24238.429278      -.079435                    
P  8  25992.295786    511.908247  -6598.773591    -86.756823                    
V  8   7587.369314   3375.936165  30345.532610      -.011693                    
P  9 -11621.979345 -14841.250620 -19382.013319     45.500291                    
V  9  23288.072478   1520.992490 -15359.814076       .016106                    
P 10    830.015473 -23064.035805  12762.328443     93.135525                    
V 10   7798.438965  14677.335381  26126.482579       .006379                    
P 11  15071.751409  13690.728192 -17271.954039     -3.654773                    
V 11 -21897.000042   2699.276417 -16768.996459       .016576                    
P 13  15908.873213   2419.072647  21032.500859    114.741473                    
V 13 -16892.764100  20861.834405  10373.359343       .036811                    
P 14 -20172.322465  13579.814126 -10515.097663      -.498152                    
V 14   7162.717083 -11538.226335 -28494.253643       .009827                    
P 16  -3960.285283  20861.288770  15954.400714     93.824742                    
V 16  -8984.654830 -18157.040634  21733.342807       .037882                    
P 17  20273.511111 -13365.246585 -10638.769191     88.978758                    
V 17  -6470.145667  12166.547502 -27737.849214      -.011818                    
P 18 -16877.072293  -9522.868776 -18173.408660   -252.791371                    
V 18  -6181.618677 -22452.912553  17063.994910      -.004176                    
P 19  -3213.756433  20624.270153 -16276.731015     36.399065                    
V 19 -15497.630831  14154.679489  20953.198305       .039918                    
P 20  13729.499388  21817.688626   6386.820232    -21.801031                    
V 20    441.866767   8694.706994 -30198.099803       .000414                    
P 21 -26397.460635  -4984.215685    114.339032     62.149985                    
V 21    572.787469  -2887.542381  30970.201071       .014553                    
P 22 -14440.161255   5081.139811 -21541.569144    150.762120                    
V 22  -8890.424871 -26308.952542   -264.980301       .026387                    
P 23   8284.356152  13172.575956  21416.941436    140.867518                    
V 23 -17522.487095  21059.286592  -6338.245031       .008426                    
P 24  11795.272903 -12388.520764  20619.632203     53.936439                    
V 24  24951.556797   5861.032983 -10565.963707       .029783                    
P 25 -15855.544864  11927.517737  18133.230770    406.196033                    
V 25 -22064.129497  -2676.936272 -17778.874013       .019020                    
P 26   3235.193945 -20557.979551 -16556.110019    -13.276140                    
V 26  14331.752405 -14631.892196  22056.631000      -.163880                    
P 27  25761.669331   5670.343616   4867.045046     79.092619                    
V 27  -5544.522234   1938.026825  30792.061080       .019390                    
P 28  15684.403405   -292.142871 -21176.583192     13.789241                    
V 28   9151.923073  25987.696531   5985.321505      -.008994                    
P 29   7172.557793 -22138.245997 -12270.099929    209.285716                    
V 29  11426.321535 -11391.467458  27045.648085       .275150                    
P 30 -17144.614455 -15004.538138  13439.389322     17.044876                    
V 30  -4635.513955 -17139.556939 -24386.398803       .010769                    
P 31 -18157.449499   9470.742129  17126.378617    -39.235829                    
V 31 -20898.119200  -4751.896844 -19711.566986       .094971                    
EOF
